     2.10           NAVIGATION DATA                         RINEX VERSION / TYPE
SPIDER V4,0,0,3554                      2015 04 15 07:40    PGM / RUN BY / DATE 
   1.9558D-08  0.0000D+00 -5.9605D-08  1.1921D-07           ION ALPHA           
   1.3517D+05 -1.1469D+05  6.5536D+04 -2.6214D+05           ION BETA            
   -1.862645149231D-09-5.329070518201D-15   319488     1830 DELTA-UTC: A0,A1,T,W
    16                                                      LEAP SECONDS        
                                                            END OF HEADER       
17 15 01 31 19 59 44.0-1.532807946205D-04-2.273736754432D-12 0.000000000000D+00
    1.000000000000D+00-1.225312500000D+02 3.934449654963D-09-2.542213351219D+00
   -6.284564733505D-06 1.004233409185D-02 8.305534720421D-06 5.153717607498D+03
    5.903840000000D+05 7.636845111847D-08-8.089556005221D-01-7.450580596924D-08
    9.712874625472D-01 2.226875000000D+02-2.042339855287D+00-7.688177205978D-09
   -8.393206962776D-11 1.000000000000D+00 1.829000000000D+03 0.000000000000D+00
    2.000000000000D+00 0.000000000000D+00-1.071020960808D-08 1.000000000000D+00
    5.903840000000D+05 0.000000000000D+00
18 15 01 31 20 00  0.0 3.762715496123D-04 2.728484105319D-12 0.000000000000D+00
    4.900000000000D+01 1.065625000000D+01 5.888459497783D-09-1.050062093038D+00
    8.977949619293D-07 1.565483422019D-02 4.911795258522D-06 5.153746448517D+03
    5.904000000000D+05 4.470348358154D-08 1.224280960285D+00 3.911554813385D-07
    9.249334212696D-01 2.660000000000D+02-1.992815322357D+00-8.770722814688D-09
    1.346484590492D-10 1.000000000000D+00 1.829000000000D+03 0.000000000000D+00
    2.000000000000D+00 0.000000000000D+00-1.117587089539D-08 4.900000000000D+01
    5.904000000000D+05 0.000000000000D+00
19 15 01 31 10 00  0.0-4.987618885934D-04-1.477928890381D-12 0.000000000000D+00
    6.900000000000D+01-1.108437500000D+02 4.258034369542D-09-2.320962061249D+00
   -5.928799510002D-06 1.090421888512D-02 8.467584848404D-06 5.153694925308D+03
    5.544000000000D+05 7.450580596924D-08-7.586663827572D-01-1.899898052216D-07
    9.684068919999D-01 2.199062500000D+02 5.171568343665D-01-7.811396862678D-09
    3.142987953231D-11 1.000000000000D+00 1.829000000000D+03 0.000000000000D+00
    2.000000000000D+00 0.000000000000D+00-1.490116119385D-08 6.900000000000D+01
    5.544000000000D+05 0.000000000000D+00
20 15 01 31 16 00  0.0 2.847006544471D-04 4.092726157978D-12 0.000000000000D+00
    9.300000000000D+01 9.250000000000D+00 5.778098000064D-09 3.093063751983D+00
    4.135072231293D-07 5.825302796438D-03 5.088746547699D-06 5.155761531830D+03
    5.760000000000D+05 7.636845111847D-08 1.171653339653D+00-9.872019290924D-08
    9.261277680704D-01 2.610937500000D+02 1.237311657306D+00-8.508211912783D-09
    1.075044775423D-10 1.000000000000D+00 1.829000000000D+03 0.000000000000D+00
    2.000000000000D+00 0.000000000000D+00-8.381903171539D-09 9.300000000000D+01
    5.760000000000D+05 0.000000000000D+00
21 15 02 01 00 00  0.0-4.117512144148D-04-4.206412995700D-12 0.000000000000D+00
    9.300000000000D+01-2.118750000000D+01 4.838058842438D-09 2.057251453878D+00
   -1.382082700729D-06 2.210946986452D-02 1.080706715584D-05 5.153624410629D+03
    0.000000000000D+00 6.519258022308D-08 6.005696378503D-02-4.824250936508D-07
    9.338379168861D-01 1.551562500000D+02-1.953218072516D+00-7.896399978335D-09
    5.360937804788D-10 1.000000000000D+00 1.830000000000D+03 0.000000000000D+00
    4.000000000000D+00 0.000000000000D+00-1.164153218269D-08 9.300000000000D+01
    0.000000000000D+00 0.000000000000D+00
22 15 01 31 07 59 44.0 3.131595440209D-04 4.206412995700D-12 0.000000000000D+00
    1.000000000000D+01 1.250000000000D-01 5.709523520636D-09-1.554428968183D+00
   -5.215406417847D-08 7.429057732224D-03 4.947185516357D-06 5.153693765640D+03
    5.471840000000D+05 2.160668373108D-07 1.226051569535D+00 4.842877388000D-08
    9.227353224871D-01 2.635937500000D+02-2.068324601199D+00-8.544641438846D-09
   -9.321816929475D-11 1.000000000000D+00 1.829000000000D+03 0.000000000000D+00
    2.000000000000D+00 0.000000000000D+00-1.769512891769D-08 1.000000000000D+01
    5.471840000000D+05 0.000000000000D+00
23 15 01 31 14 00  0.0-8.554151281714D-05-2.614797267597D-12 0.000000000000D+00
    5.200000000000D+01 4.500000000000D+00 4.730911218331D-09-6.658223702428D-01
    1.173466444016D-07 9.741682442836D-03 9.953975677490D-06 5.153669698715D+03
    5.688000000000D+05 1.844018697739D-07 2.294933123508D+00 6.519258022308D-08
    9.492439891023D-01 1.796562500000D+02-2.715650654482D+00-8.101051385268D-09
   -6.335978408600D-10 1.000000000000D+00 1.829000000000D+03 0.000000000000D+00
    2.000000000000D+00 0.000000000000D+00-2.002343535423D-08 5.200000000000D+01
    5.688000000000D+05 0.000000000000D+00
24 15 02 01 00 00  0.0-4.269275814295D-05-5.684341886081D-13 0.000000000000D+00
    8.000000000000D+01 1.078125000000D+02 4.533045938615D-09-2.353874008072D+00
    5.492940545082D-06 2.981656114571D-03 8.925795555115D-06 5.153691526413D+03
    0.000000000000D+00-3.725290298462D-09-3.082416227511D+00-4.470348358154D-08
    9.549761454011D-01 2.055312500000D+02 2.664250504042D-01-8.012476904184D-09
    1.275053118643D-10 1.000000000000D+00 1.830000000000D+03 0.000000000000D+00
    2.000000000000D+00 0.000000000000D+00 2.328306436539D-09 8.000000000000D+01
    0.000000000000D+00 0.000000000000D+00
25 15 02 01 00 00  0.0-5.322508513927D-07-2.614797267597D-12 0.000000000000D+00
    9.300000000000D+01 1.878125000000D+01 4.452328283833D-09 1.915923995548D+00
    9.313225746155D-07 4.102562088519D-03 1.512467861176D-06 5.153729207993D+03
    0.000000000000D+00-1.750886440277D-07-2.022226039546D+00 0.000000000000D+00
    9.775606732459D-01 3.587812500000D+02 6.580819273195D-01-8.323561395684D-09
    1.214336270428D-11 1.000000000000D+00 1.830000000000D+03 0.000000000000D+00
    2.000000000000D+00 0.000000000000D+00 5.122274160385D-09 9.300000000000D+01
    0.000000000000D+00 0.000000000000D+00
27 15 01 31 08 00  0.0 4.812655970454D-05 2.614797267597D-12 0.000000000000D+00
    3.700000000000D+01-1.005937500000D+02 4.337323389336D-09-2.494728298716D+00
   -5.267560482025D-06 1.909185783006D-03 7.942318916321D-06 5.153691040039D+03
    5.472000000000D+05-3.911554813385D-08-8.556898659119D-01-5.215406417847D-08
    9.661092665117D-01 2.307500000000D+02 1.480449777304D-01-7.959259917811D-09
   -1.057186907460D-10 1.000000000000D+00 1.829000000000D+03 0.000000000000D+00
    2.000000000000D+00 0.000000000000D+00 1.862645149231D-09 3.700000000000D+01
    5.472000000000D+05 0.000000000000D+00
28 15 01 31 20 00  0.0 4.163281992078D-04 2.614797267597D-12 0.000000000000D+00
    7.300000000000D+01-2.468750000000D+00 4.028739120088D-09-1.749195600949D+00
    1.825392246246D-07 1.974155975040D-02 1.501291990280D-06 5.153687995911D+03
    5.904000000000D+05 2.924352884293D-07-1.832246920302D+00 2.961605787277D-07
    9.880988870162D-01 3.635937500000D+02-1.674709886389D+00-7.992476014351D-09
   -9.357532804177D-11 1.000000000000D+00 1.829000000000D+03 0.000000000000D+00
    2.800000000000D+00 0.000000000000D+00-1.117587089539D-08 7.300000000000D+01
    5.904000000000D+05 0.000000000000D+00
29 15 02 01 00 00  0.0 5.893534980714D-04 2.273736754432D-12 0.000000000000D+00
    1.130000000000D+02-1.172500000000D+02 4.027310485100D-09 2.394539033042D+00
   -6.163492798805D-06 1.290278974921D-03 8.236616849899D-06 5.153570274353D+03
    0.000000000000D+00-2.421438694000D-08-9.202217512725D-01 2.793967723846D-08
    9.721002861646D-01 2.252812500000D+02-8.599530447247D-01-7.862470674525D-09
   -2.707255530865D-10 1.000000000000D+00 1.830000000000D+03 0.000000000000D+00
    2.800000000000D+00 0.000000000000D+00-9.778887033463D-09 1.130000000000D+02
    0.000000000000D+00 0.000000000000D+00
30 15 01 31 18 00  0.0-8.588051423430D-05 6.821210263297D-13 0.000000000000D+00
    6.400000000000D+01 1.176250000000D+02 4.393754249321D-09-9.457061279991D-02
    5.928799510002D-06 9.928792715073D-04 7.668510079384D-06 5.153621641159D+03
    5.832000000000D+05 1.303851604462D-08-2.872039569805D+00-9.313225746155D-09
    9.574141627486D-01 2.305000000000D+02 3.057134739967D+00-8.108552052022D-09
    5.214502787898D-11 1.000000000000D+00 1.829000000000D+03 0.000000000000D+00
    2.000000000000D+00 0.000000000000D+00 3.259629011154D-09 6.400000000000D+01
    5.832000000000D+05 0.000000000000D+00
31 15 02 01 00 00  0.0 3.242958337069D-04-7.958078640513D-13 0.000000000000D+00
    3.100000000000D+01 1.283437500000D+02 4.091956107288D-09 2.976070171623D+00
    6.692484021187D-06 8.311363053508D-03 9.166076779366D-06 5.153727243423D+03
    0.000000000000D+00-5.215406417847D-08-3.036325287661D+00 1.396983861923D-07
    9.766361821657D-01 2.117812500000D+02-5.611142193795D-01-7.718893080266D-09
    1.546492933713D-10 1.000000000000D+00 1.830000000000D+03 0.000000000000D+00
    2.000000000000D+00 0.000000000000D+00-1.350417733192D-08 3.100000000000D+01
    0.000000000000D+00 0.000000000000D+00
32 15 01 31 12 00  0.0-2.348311245441D-04 8.981260180008D-12 0.000000000000D+00
    4.000000000000D+00-3.343750000000D+00 5.177715589610D-09-2.749648518080D+00
   -3.203749656677D-07 1.133963849861D-02 5.345791578293D-06 5.153575332642D+03
    5.616000000000D+05-2.440065145493D-07 1.324077571431D+00-4.656612873077D-08
    9.467634549667D-01 2.669062500000D+02 1.289881495599D-02-8.210341739812D-09
   -1.514348785259D-10 1.000000000000D+00 1.829000000000D+03 0.000000000000D+00
    2.000000000000D+00 0.000000000000D+00-3.725290298462D-09 4.000000000000D+00
    5.616000000000D+05 0.000000000000D+00
